{"type": "FeatureCollection", "features": [ {"type": "Feature", "properties": {"norad_id": 33153, "name": "INTELSAT 25 (IS-25)", "group": "intelsat", "lat": 2.0161407215881004, "lon": -162.88994522747404, "alt_km": 35776.68810931998, "timestamp": "2025-12-12T09:49:08.395564+00:00", "meta": {"OBJECT_NAME": "INTELSAT 25 (IS-25)", "OBJECT_ID": "2008-034A", "EPOCH": "2025-12-12T03:03:31.935744", "MEAN_MOTION": 1.00271762, "ECCENTRICITY": 0.0005043, "INCLINATION": 2.2264, "RA_OF_ASC_NODE": 82.6563, "ARG_OF_PERICENTER": 179.0721, "MEAN_ANOMALY": 193.7407, "EPHEMERIS_TYPE": 0, "CLASSIFICATION_TYPE": "U", "NORAD_CAT_ID": 33153, "ELEMENT_SET_NO": 999, "REV_AT_EPOCH": 6382, "BSTAR": 0, "MEAN_MOTION_DOT": -2.15e-06, "MEAN_MOTION_DDOT": 0}, "tle": {"line1": "1 33153U 08034A   25346.12745296 -.00000215  00000+0  00000+0 0  9993", "line2": "2 33153   2.2264  82.6563 0005043 179.0721 193.7407  1.00271762 63828"}}, "geometry": {"type": "Point", "coordinates": [-162.88994522747404, 2.0161407215881004]}}, {"type": "Feature", "properties": {"norad_id": 33376, "name": "GALAXY 19 (G-19)", "group": "intelsat", "lat": 0.019676473477060686, "lon": 131.61118515769255, "alt_km": 35794.05552277185, "timestamp": "2025-12-12T09:49:08.395577+00:00", "meta": {"OBJECT_NAME": "GALAXY 19 (G-19)", "OBJECT_ID": "2008-045A", "EPOCH": "2025-12-12T02:44:48.728832", "MEAN_MOTION": 1.00269708, "ECCENTRICITY": 0.0002642, "INCLINATION": 0.0173, "RA_OF_ASC_NODE": 351.1363, "ARG_OF_PERICENTER": 271.8306, "MEAN_ANOMALY": 122.3026, "EPHEMERIS_TYPE": 0, "CLASSIFICATION_TYPE": "U", "NORAD_CAT_ID": 33376, "ELEMENT_SET_NO": 999, "REV_AT_EPOCH": 6302, "BSTAR": 0, "MEAN_MOTION_DOT": 0, "MEAN_MOTION_DDOT": 0}, "tle": {"line1": "1 33376U 08045A   25346.11445288  .00000000  00000+0  00000+0 0  9990", "line2": "2 33376   0.0173 351.1363 0002642 271.8306 122.3026  1.00269708 63028"}}, "geometry": {"type": "Point", "coordinates": [131.61118515769255, 0.019676473477060686]}}, {"type": "Feature", "properties": {"norad_id": 35493, "name": "FM-5", "group": "intelsat", "lat": -0.006996561647596824, "lon": 142.48781488708167, "alt_km": 35783.64096862814, "timestamp": "2025-12-12T09:49:08.395589+00:00", "meta": {"OBJECT_NAME": "FM-5", "OBJECT_ID": "2009-034A", "EPOCH": "2025-12-11T23:22:27.924384", "MEAN_MOTION": 1.00271483, "ECCENTRICITY": 6.71e-05, "INCLINATION": 0.0165, "RA_OF_ASC_NODE": 292.0867, "ARG_OF_PERICENTER": 235.2397, "MEAN_ANOMALY": 178.0732, "EPHEMERIS_TYPE": 0, "CLASSIFICATION_TYPE": "U", "NORAD_CAT_ID": 35493, "ELEMENT_SET_NO": 999, "REV_AT_EPOCH": 4476, "BSTAR": 0, "MEAN_MOTION_DOT": -1.91e-06, "MEAN_MOTION_DDOT": 0}, "tle": {"line1": "1 35493U 09034A   25345.97393431 -.00000191  00000+0  00000+0 0  9998", "line2": "2 35493   0.0165 292.0867 0000671 235.2397 178.0732  1.00271483 44762"}}, "geometry": {"type": "Point", "coordinates": [142.48781488708167, -0.006996561647596824]}}, {"type": "Feature", "properties": {"norad_id": 36097, "name": "INTELSAT 14 (IS-14)", "group": "intelsat", "lat": 0.000743691516709002, "lon": -176.38872985897777, "alt_km": 35784.636095847345, "timestamp": "2025-12-12T09:49:08.395601+00:00", "meta": {"OBJECT_NAME": "INTELSAT 14 (IS-14)", "OBJECT_ID": "2009-064A", "EPOCH": "2025-12-12T02:59:39.808320", "MEAN_MOTION": 1.00272396, "ECCENTRICITY": 0.0002523, "INCLINATION": 0.0139, "RA_OF_ASC_NODE": 26.6259, "ARG_OF_PERICENTER": 240.0342, "MEAN_ANOMALY": 174.3356, "EPHEMERIS_TYPE": 0, "CLASSIFICATION_TYPE": "U", "NORAD_CAT_ID": 36097, "ELEMENT_SET_NO": 999, "REV_AT_EPOCH": 5872, "BSTAR": 0, "MEAN_MOTION_DOT": -2.64e-06, "MEAN_MOTION_DDOT": 0}, "tle": {"line1": "1 36097U 09064A   25346.12476630 -.00000264  00000+0  00000+0 0  9994", "line2": "2 36097   0.0139  26.6259 0002523 240.0342 174.3356  1.00272396 58728"}}, "geometry": {"type": "Point", "coordinates": [-176.38872985897777, 0.000743691516709002]}}, {"type": "Feature", "properties": {"norad_id": 36106, "name": "INTELSAT 15 (IS-15)", "group": "intelsat", "lat": 0.0039367347082175696, "lon": -46.19368148143621, "alt_km": 35778.97687693274, "timestamp": "2025-12-12T09:49:08.395613+00:00", "meta": {"OBJECT_NAME": "INTELSAT 15 (IS-15)", "OBJECT_ID": "2009-067A", "EPOCH": "2025-12-12T01:54:01.094976", "MEAN_MOTION": 1.00272349, "ECCENTRICITY": 0.0002352, "INCLINATION": 0.0211, "RA_OF_ASC_NODE": 292.3297, "ARG_OF_PERICENTER": 335.9709, "MEAN_ANOMALY": 286.3858, "EPHEMERIS_TYPE": 0, "CLASSIFICATION_TYPE": "U", "NORAD_CAT_ID": 36106, "ELEMENT_SET_NO": 999, "REV_AT_EPOCH": 3935, "BSTAR": 0, "MEAN_MOTION_DOT": -1.76e-06, "MEAN_MOTION_DDOT": 0}, "tle": {"line1": "1 36106U 09067A   25346.07917934 -.00000176  00000+0  00000+0 0  9991", "line2": "2 36106   0.0211 292.3297 0002352 335.9709 286.3858  1.00272349 39352"}}, "geometry": {"type": "Point", "coordinates": [-46.19368148143621, 0.0039367347082175696]}}, {"type": "Feature", "properties": {"norad_id": 36131, "name": "DIRECTV 12", "group": "intelsat", "lat": 0.004940759651521709, "lon": 125.92147182956265, "alt_km": 35787.36386065307, "timestamp": "2025-12-12T09:49:08.395625+00:00", "meta": {"OBJECT_NAME": "DIRECTV 12", "OBJECT_ID": "2009-075A", "EPOCH": "2025-12-11T23:17:43.378080", "MEAN_MOTION": 1.00271584, "ECCENTRICITY": 4.68e-05, "INCLINATION": 0.0479, "RA_OF_ASC_NODE": 139.1887, "ARG_OF_PERICENTER": 218.3, "MEAN_ANOMALY": 330.148, "EPHEMERIS_TYPE": 0, "CLASSIFICATION_TYPE": "U", "NORAD_CAT_ID": 36131, "ELEMENT_SET_NO": 999, "REV_AT_EPOCH": 4467, "BSTAR": 0, "MEAN_MOTION_DOT": -9.5e-07, "MEAN_MOTION_DDOT": 0}, "tle": {"line1": "1 36131U 09075A   25345.97064095 -.00000095  00000+0  00000+0 0  9997", "line2": "2 36131   0.0479 139.1887 0000468 218.3000 330.1480  1.00271584 44673"}}, "geometry": {"type": "Point", "coordinates": [125.92147182956265, 0.004940759651521709]}}, {"type": "Feature", "properties": {"norad_id": 36397, "name": "INTELSAT 16 (IS-16)", "group": "intelsat", "lat": -0.00037951812932921327, "lon": 152.41701560648082, "alt_km": 35789.03975371985, "timestamp": "2025-12-12T09:49:08.395637+00:00", "meta": {"OBJECT_NAME": "INTELSAT 16 (IS-16)", "OBJECT_ID": "2010-006A", "EPOCH": "2025-12-12T02:50:40.668000", "MEAN_MOTION": 1.00272257, "ECCENTRICITY": 0.0002105, "INCLINATION": 0.0089, "RA_OF_ASC_NODE": 329.2719, "ARG_OF_PERICENTER": 293.2852, "MEAN_ANOMALY": 144.9859, "EPHEMERIS_TYPE": 0, "CLASSIFICATION_TYPE": "U", "NORAD_CAT_ID": 36397, "ELEMENT_SET_NO": 999, "REV_AT_EPOCH": 5777, "BSTAR": 0, "MEAN_MOTION_DOT": -2.35e-06, "MEAN_MOTION_DDOT": 0}, "tle": {"line1": "1 36397U 10006A   25346.11852625 -.00000235  00000+0  00000+0 0  9994", "line2": "2 36397   0.0089 329.2719 0002105 293.2852 144.9859  1.00272257 57771"}}, "geometry": {"type": "Point", "coordinates": [152.41701560648082, -0.00037951812932921327]}}, {"type": "Feature", "properties": {"norad_id": 37185, "name": "XM-5", "group": "intelsat", "lat": -0.010301608227428245, "lon": 113.42970807113036, "alt_km": 35780.49884032278, "timestamp": "2025-12-12T09:49:08.395649+00:00", "meta": {"OBJECT_NAME": "XM-5", "OBJECT_ID": "2010-053A", "EPOCH": "2025-12-12T03:46:38.737056", "MEAN_MOTION": 1.00272664, "ECCENTRICITY": 0.0001561, "INCLINATION": 0.0596, "RA_OF_ASC_NODE": 272.3532, "ARG_OF_PERICENTER": 236.8409, "MEAN_ANOMALY": 233.3792, "EPHEMERIS_TYPE": 0, "CLASSIFICATION_TYPE": "U", "NORAD_CAT_ID": 37185, "ELEMENT_SET_NO": 999, "REV_AT_EPOCH": 5560, "BSTAR": 0, "MEAN_MOTION_DOT": -1.4e-07, "MEAN_MOTION_DDOT": 0}, "tle": {"line1": "1 37185U 10053A   25346.15739279 -.00000014  00000+0  00000+0 0  9990", "line2": "2 37185   0.0596 272.3532 0001561 236.8409 233.3792  1.00272664 55608"}}, "geometry": {"type": "Point", "coordinates": [113.42970807113036, -0.010301608227428245]}}, {"type": "Feature", "properties": {"norad_id": 37238, "name": "INTELSAT 17 (IS-17)", "group": "intelsat", "lat": -0.009438438447506456, "lon": -65.33874003026467, "alt_km": 35777.20105975219, "timestamp": "2025-12-12T09:49:08.395661+00:00", "meta": {"OBJECT_NAME": "INTELSAT 17 (IS-17)", "OBJECT_ID": "2010-065B", "EPOCH": "2025-12-12T03:31:21.772128", "MEAN_MOTION": 1.00271325, "ECCENTRICITY": 0.0002517, "INCLINATION": 0.009, "RA_OF_ASC_NODE": 303.8293, "ARG_OF_PERICENTER": 318.5128, "MEAN_ANOMALY": 297.6069, "EPHEMERIS_TYPE": 0, "CLASSIFICATION_TYPE": "U", "NORAD_CAT_ID": 37238, "ELEMENT_SET_NO": 999, "REV_AT_EPOCH": 5137, "BSTAR": 0, "MEAN_MOTION_DOT": 8e-08, "MEAN_MOTION_DDOT": 0}, "tle": {"line1": "1 37238U 10065B   25346.14677977  .00000008  00000+0  00000+0 0  9999", "line2": "2 37238   0.0090 303.8293 0002517 318.5128 297.6069  1.00271325 51371"}}, "geometry": {"type": "Point", "coordinates": [-65.33874003026467, -0.009438438447506456]}}, {"type": "Feature", "properties": {"norad_id": 37392, "name": "INTELSAT 28 (IS-28)", "group": "intelsat", "lat": 1.216940614391843, "lon": -163.0858020055332, "alt_km": 35779.58566054812, "timestamp": "2025-12-12T09:49:08.395673+00:00", "meta": {"OBJECT_NAME": "INTELSAT 28 (IS-28)", "OBJECT_ID": "2011-016A", "EPOCH": "2025-12-12T03:03:24.449184", "MEAN_MOTION": 1.00273219, "ECCENTRICITY": 0.0003818, "INCLINATION": 1.3233, "RA_OF_ASC_NODE": 85.0571, "ARG_OF_PERICENTER": 180.283, "MEAN_ANOMALY": 189.9011, "EPHEMERIS_TYPE": 0, "CLASSIFICATION_TYPE": "U", "NORAD_CAT_ID": 37392, "ELEMENT_SET_NO": 999, "REV_AT_EPOCH": 5141, "BSTAR": 0, "MEAN_MOTION_DOT": -2.15e-06, "MEAN_MOTION_DDOT": 0}, "tle": {"line1": "1 37392U 11016A   25346.12736631 -.00000215  00000+0  00000+0 0  9999", "line2": "2 37392   1.3233  85.0571 0003818 180.2830 189.9011  1.00273219 51411"}}, "geometry": {"type": "Point", "coordinates": [-163.0858020055332, 1.216940614391843]}}]}